{
  "norad_id": 60052,
  "name": "STARLINK-31775",
  "history": [
    {
      "epoch": "2026-03-28T10:30:18.612288",
      "apogee_km": 476.45639127628147,
      "perigee_km": 474.0041194049745,
      "latitude_deg": 45.65272268039321,
      "longitude_deg": -132.77931968006305,
      "semi_major_axis_km": 6853.367255340628,
      "eccentricity": 0.00017891,
      "inclination_deg": 53.1636,
      "raan_deg": 351.1519,
      "arg_perigee_deg": 64.1477,
      "mean_anomaly_deg": 295.9709,
      "mean_motion_rev_day": 15.30194914
    },
    {
      "epoch": "2026-03-28T21:28:40.722528",
      "apogee_km": 476.1557270768135,
      "perigee_km": 474.2737966830009,
      "latitude_deg": 46.80717484619957,
      "longitude_deg": -88.88808608008549,
      "semi_major_axis_km": 6853.351761879907,
      "eccentricity": 0.0001373,
      "inclination_deg": 53.163,
      "raan_deg": 349.0283,
      "arg_perigee_deg": 86.6362,
      "mean_anomaly_deg": 273.4796,
      "mean_motion_rev_day": 15.30200103
    }
  ]
}